STARLINK-34665          
1 65089U 25167M   26191.33443016  .00012291  00000+0  42627-3 0  9990
2 65089  53.1568 177.2469 0001312  85.1278 274.9873 15.30211651 52251
STARLINK-34673          
1 65090U 25167N   26191.98441007  .00012501  00000+0  43319-3 0  9994
2 65090  53.1560 174.1931 0000760  26.9155 333.1885 15.30222304 52357
STARLINK-34648          
1 65091U 25167P   26191.37678736  .00016748  00000+0  50529-3 0  9997
2 65091  53.1583 171.1132 0001013 100.5840 259.5277 15.34425010 52343
STARLINK-34640          
1 65092U 25167Q   26191.98019105  .00012831  00000+0  44439-3 0  9996
2 65092  53.1563 174.1657 0001602 100.4835 259.6346 15.30215588 52356
STARLINK-34266          
1 65093U 25167R   26191.56168492 -.00001761  00000+0 -41029-4 0  9990
2 65093  53.1580 170.1332 0001331  66.1263 293.9878 15.34376303 52374
STARLINK-34769          
1 65094U 25167S   26191.58061010  .00020789  00000+0  62489-3 0  9992
2 65094  53.1587 170.2513 0000861 148.6154 211.4900 15.34390625 52369
STARLINK-34768          
1 65095U 25167T   26190.34091095  .00001979  00000+0  69633-4 0  9991
2 65095  53.1584 176.0229 0000682 203.4184 156.6788 15.34417318 52182
STARLINK-34759          
1 65096U 25167U   26191.96722174  .00015300  00000+0  46287-3 0  9992
2 65096  53.1568 168.3968 0001354 103.4094 256.7059 15.34410520 52434
STARLINK-34741          
1 65097U 25167V   26191.44403564  .00002539  00000+0  86255-4 0  9995
2 65097  53.1564 170.8224 0001920  65.7131 294.4072 15.34405713 52358
STARLINK-34764          
1 65098U 25167W   26190.39449526  .00010690  00000+0  32690-3 0  9997
2 65098  53.1567 179.2071 0001253 106.2574 253.8567 15.34416750 52144
STARLINK-34815          
1 65099U 25167X   26192.14684891  .00010783  00000+0  32987-3 0  9991
2 65099  53.1566 170.9458 0001352  95.0855 265.0301 15.34394999 52419
STARLINK-34814          
1 65100U 25167Y   26191.97037551  .00011507  00000+0  35118-3 0  9993
2 65100  53.1563 171.9779 0001445  93.7129 266.4039 15.34398772 52380
STARLINK-34285          
1 65101U 25167Z   26190.68868986  .00015856  00000+0  47911-3 0  9990
2 65101  53.1576 178.1972 0000973 245.1456 114.9445 15.34420611 52184
STARLINK-34857          
1 65102U 25167AA  26191.32217525  .00014389  00000+0  43617-3 0  9999
2 65102  53.1578 171.4791 0001685  64.5928 295.5249 15.34401247 52328
STARLINK-34887          
1 65103U 25167AB  26190.69500727  .00018389  00000+0  55353-3 0  9992
2 65103  53.1599 178.2344 0001986  69.8595 290.2621 15.34430014 52187
STARLINK-34481          
1 65104U 25167AC  26191.56378122  .00021490  00000+0  64552-3 0  9990
2 65104  53.1580 170.1420 0001646  51.3109 308.8040 15.34390918 52363
STARLINK-34545          
1 65105U 25167AD  26191.37048983  .00014600  00000+0  44291-3 0  9992
2 65105  53.1575 171.0698 0000609 114.3705 245.7361 15.34362494 52346
HULIANWANG DIGUI-49     
1 65106U 25168A   26192.14374779 -.00000090  00000+0  73707-4 0  9999
2 65106  50.0015 240.0455 0008360 178.7886 181.3007 13.29321723 45870
HULIANWANG DIGUI-50     
1 65107U 25168B   26192.21052306 -.00000088  00000+0  77739-4 0  9993
2 65107  49.9985 239.6469 0008965 165.0376 195.0763 13.29321393 45882
HULIANWANG DIGUI-51     
1 65108U 25168C   26192.20182841 -.00000084  00000+0  86816-4 0  9993
2 65108  50.0021 239.7061 0010278 164.1234 195.9961 13.29324526 45889
HULIANWANG DIGUI-52     
1 65109U 25168D   26192.19372346 -.00000079  00000+0  96304-4 0  9990
2 65109  50.0015 239.6404 0010498 176.6268 183.4677 13.29322411 45889
HULIANWANG DIGUI-53     
1 65110U 25168E   26192.18520426 -.00000083  00000+0  88811-4 0  9994
2 65110  50.0023 239.6255 0008989 167.6458 192.4635 13.29325858 45889
HULIANWANG DIGUI-54     
1 65111U 25168F   26192.16034332 -.00000083  00000+0  88289-4 0  9998
2 65111  49.9974 239.3582 0010807 171.8748 188.2301 13.29326072 45885
HULIANWANG DIGUI-55     
1 65112U 25168G   26192.17693860 -.00000075  00000+0  10525-3 0  9995
2 65112  49.9979 239.4577 0011863 167.9545 192.1613 13.29322305 45885
HULIANWANG DIGUI-56     
1 65113U 25168H   26192.16865175 -.00000077  00000+0  10142-3 0  9992
2 65113  49.9971 239.3910 0012022 187.6913 172.3777 13.29321839 45886
HULIANWANG DIGUI-57     
1 65114U 25168J   26192.15201701 -.00000085  00000+0  83767-4 0  9994
2 65114  49.9999 239.3868 0009662 179.8921 180.1954 13.29326045 45896
QPS-SAR-12 (KUSHINADA-I)
1 65116U 25169A   26192.19420169  .00002125  00000+0  17773-3 0  9991
2 65116  42.0106 243.7608 0007348   1.8431 358.2421 15.01050423 51027
GEESAT-4 01             
1 65119U 25170A   26192.20330985  .00000955  00000+0  14038-3 0  9994
2 65119  49.9888  63.0786 0010287 141.7155 218.4515 14.84067506 50004
GEESAT-4 02             
1 65120U 25170B   26192.12512102  .00000815  00000+0  12376-3 0  9998
2 65120  49.9862  63.2443 0009650 179.3860 180.7092 14.84056804 50013
GEESAT-4 03             
1 65121U 25170C   26192.15780273  .00000984  00000+0  14380-3 0  9992
2 65121  49.9931  62.9296 0020207 152.7367 207.4637 14.84073503 49993
