OBJECT_NAME,OBJECT_ID,EPOCH,MEAN_MOTION,ECCENTRICITY,INCLINATION,RA_OF_ASC_NODE,ARG_OF_PERICENTER,MEAN_ANOMALY,EPHEMERIS_TYPE,CLASSIFICATION_TYPE,NORAD_CAT_ID,ELEMENT_SET_NO,REV_AT_EPOCH,BSTAR,MEAN_MOTION_DOT,MEAN_MOTION_DDOT
STARLINK-34665,2025-167M,2026-07-10T08:01:34.765824,15.30211651,.00013122,53.1568,177.2469,85.1278,274.9873,0,U,65089,999,5225,.42626683E-3,.12291E-3,0
STARLINK-34673,2025-167N,2026-07-10T23:37:33.030048,15.30222304,.000076,53.1560,174.1931,26.9155,333.1885,0,U,65090,999,5235,.43319E-3,.12501E-3,0
STARLINK-34648,2025-167P,2026-07-10T09:02:34.427904,15.34425010,.00010137,53.1583,171.1132,100.5840,259.5277,0,U,65091,999,5234,.50529108E-3,.16748E-3,0
STARLINK-34640,2025-167Q,2026-07-10T23:31:28.506720,15.30215588,.0001602,53.1563,174.1657,100.4835,259.6346,0,U,65092,999,5235,.44439E-3,.12831E-3,0
STARLINK-34266,2025-167R,2026-07-10T13:28:49.577088,15.34376303,.0001331,53.1580,170.1332,66.1263,293.9878,0,U,65093,999,5237,-.41029E-4,-.1761E-4,0
STARLINK-34769,2025-167S,2026-07-10T13:56:04.712640,15.34390625,.0000861,53.1587,170.2513,148.6154,211.4900,0,U,65094,999,5236,.62489E-3,.20789E-3,0
STARLINK-34768,2025-167T,2026-07-09T08:10:54.706080,15.34417318,.00006825,53.1584,176.0229,203.4184,156.6788,0,U,65095,999,5218,.69633214E-4,.1979E-4,0
STARLINK-34759,2025-167U,2026-07-10T23:12:47.958336,15.34410520,.0001354,53.1568,168.3968,103.4094,256.7059,0,U,65096,999,5243,.46287E-3,.153E-3,0
STARLINK-34741,2025-167V,2026-07-10T10:39:24.679296,15.34405713,.00019207,53.1564,170.8224,65.7131,294.4072,0,U,65097,999,5235,.86254632E-4,.2539E-4,0
STARLINK-34764,2025-167W,2026-07-09T09:28:04.390464,15.34416750,.00012536,53.1567,179.2071,106.2574,253.8567,0,U,65098,999,5214,.32690202E-3,.1069E-3,0
STARLINK-34815,2025-167X,2026-07-11T03:31:27.745824,15.34394999,.0001352,53.1566,170.9458,95.0855,265.0301,0,U,65099,999,5241,.32987E-3,.10783E-3,0
STARLINK-34814,2025-167Y,2026-07-10T23:17:20.444064,15.34398772,.0001445,53.1563,171.9779,93.7129,266.4039,0,U,65100,999,5238,.35118E-3,.11507E-3,0
STARLINK-34285,2025-167Z,2026-07-09T16:31:42.803904,15.34420611,.00009733,53.1576,178.1972,245.1456,114.9445,0,U,65101,999,5218,.47911069E-3,.15856E-3,0
STARLINK-34857,2025-167AA,2026-07-10T07:43:55.941600,15.34401247,.00016857,53.1578,171.4791,64.5928,295.5249,0,U,65102,999,5232,.43616817E-3,.14389E-3,0
STARLINK-34887,2025-167AB,2026-07-09T16:40:48.628128,15.34430014,.00019862,53.1599,178.2344,69.8595,290.2621,0,U,65103,999,5218,.55352579E-3,.18389E-3,0
STARLINK-34481,2025-167AC,2026-07-10T13:31:50.697408,15.34390918,.0001646,53.1580,170.1420,51.3109,308.8040,0,U,65104,999,5236,.64552E-3,.2149E-3,0
STARLINK-34545,2025-167AD,2026-07-10T08:53:30.321312,15.34362494,.00006091,53.1575,171.0698,114.3705,245.7361,0,U,65105,999,5234,.44290801E-3,.146E-3,0
HULIANWANG DIGUI-49,2025-168A,2026-07-11T03:26:59.809056,13.29321723,.000836,50.0015,240.0455,178.7886,181.3007,0,U,65106,999,4587,.73707E-4,-.9E-6,0
HULIANWANG DIGUI-50,2025-168B,2026-07-11T05:03:09.192384,13.29321393,.0008965,49.9985,239.6469,165.0376,195.0763,0,U,65107,999,4588,.77739E-4,-.88E-6,0
HULIANWANG DIGUI-51,2025-168C,2026-07-11T04:50:37.974624,13.29324526,.0010278,50.0021,239.7061,164.1234,195.9961,0,U,65108,999,4588,.86816E-4,-.84E-6,0
HULIANWANG DIGUI-52,2025-168D,2026-07-11T04:38:57.706944,13.29322411,.0010498,50.0015,239.6404,176.6268,183.4677,0,U,65109,999,4588,.96304E-4,-.79E-6,0
HULIANWANG DIGUI-53,2025-168E,2026-07-11T04:26:41.648064,13.29325858,.0008989,50.0023,239.6255,167.6458,192.4635,0,U,65110,999,4588,.88811E-4,-.83E-6,0
HULIANWANG DIGUI-54,2025-168F,2026-07-11T03:50:53.662848,13.29326072,.0010807,49.9974,239.3582,171.8748,188.2301,0,U,65111,999,4588,.88289E-4,-.83E-6,0
HULIANWANG DIGUI-55,2025-168G,2026-07-11T04:14:47.495040,13.29322305,.0011863,49.9979,239.4577,167.9545,192.1613,0,U,65112,999,4588,.10525E-3,-.75E-6,0
HULIANWANG DIGUI-56,2025-168H,2026-07-11T04:02:51.511200,13.29321839,.0012022,49.9971,239.3910,187.6913,172.3777,0,U,65113,999,4588,.10142E-3,-.77E-6,0
HULIANWANG DIGUI-57,2025-168J,2026-07-11T03:38:54.269664,13.29326045,.0009662,49.9999,239.3868,179.8921,180.1954,0,U,65114,999,4589,.83767E-4,-.85E-6,0
QPS-SAR-12 (KUSHINADA-I),2025-169A,2026-07-11T04:39:39.026016,15.01050423,.0007348,42.0106,243.7608,1.8431,358.2421,0,U,65116,999,5102,.17773E-3,.2125E-4,0
GEESAT-4 01,2025-170A,2026-07-11T04:52:45.971040,14.84067506,.0010287,49.9888,63.0786,141.7155,218.4515,0,U,65119,999,5000,.14038E-3,.955E-5,0
GEESAT-4 02,2025-170B,2026-07-11T03:00:10.456128,14.84056804,.000965,49.9862,63.2443,179.3860,180.7092,0,U,65120,999,5001,.12376E-3,.815E-5,0
GEESAT-4 03,2025-170C,2026-07-11T03:47:14.155872,14.84073503,.0020207,49.9931,62.9296,152.7367,207.4637,0,U,65121,999,4999,.1438E-3,.984E-5,0
